CCSDS_OMM_VERS = 2.0
CREATION_DATE  = 
ORIGINATOR     = 

OBJECT_NAME    = QIANFAN-103
OBJECT_ID      = 2025-233N
CENTER_NAME    = EARTH
REF_FRAME      = TEME
TIME_SYSTEM    = UTC
MEAN_ELEMENT_THEORY = SGP/SGP4

EPOCH          = 2025-11-06T18:11:11.778144
MEAN_MOTION    = 14.26251615
ECCENTRICITY   = .0015775
INCLINATION    = 88.9953
RA_OF_ASC_NODE = 66.1724
ARG_OF_PERICENTER = 147.0869
MEAN_ANOMALY   = 213.1310

EPHEMERIS_TYPE = 0
CLASSIFICATION_TYPE = U
NORAD_CAT_ID   = 66045
ELEMENT_SET_NO = 999
REV_AT_EPOCH   = 291
BSTAR          = .36063E-3
MEAN_MOTION_DOT = .88E-5
MEAN_MOTION_DDOT = 0

CCSDS_OMM_VERS = 2.0
CREATION_DATE  = 
ORIGINATOR     = 

OBJECT_NAME    = QIANFAN-104
OBJECT_ID      = 2025-233P
CENTER_NAME    = EARTH
REF_FRAME      = TEME
TIME_SYSTEM    = UTC
MEAN_ELEMENT_THEORY = SGP/SGP4

EPOCH          = 2025-11-06T18:10:50.744928
MEAN_MOTION    = 14.26272393
ECCENTRICITY   = .0015764
INCLINATION    = 88.9953
RA_OF_ASC_NODE = 66.1724
ARG_OF_PERICENTER = 149.3148
MEAN_ANOMALY   = 210.8971

EPHEMERIS_TYPE = 0
CLASSIFICATION_TYPE = U
NORAD_CAT_ID   = 66046
ELEMENT_SET_NO = 999
REV_AT_EPOCH   = 291
BSTAR          = .36252E-3
MEAN_MOTION_DOT = .885E-5
MEAN_MOTION_DDOT = 0

CCSDS_OMM_VERS = 2.0
CREATION_DATE  = 
ORIGINATOR     = 

OBJECT_NAME    = QIANFAN-105
OBJECT_ID      = 2025-233Q
CENTER_NAME    = EARTH
REF_FRAME      = TEME
TIME_SYSTEM    = UTC
MEAN_ELEMENT_THEORY = SGP/SGP4

EPOCH          = 2025-11-06T18:10:12.423072
MEAN_MOTION    = 14.26330692
ECCENTRICITY   = .0015952
INCLINATION    = 88.9952
RA_OF_ASC_NODE = 66.1721
ARG_OF_PERICENTER = 149.4519
MEAN_ANOMALY   = 210.7607

EPHEMERIS_TYPE = 0
CLASSIFICATION_TYPE = U
NORAD_CAT_ID   = 66047
ELEMENT_SET_NO = 999
REV_AT_EPOCH   = 291
BSTAR          = .35817E-3
MEAN_MOTION_DOT = .875E-5
MEAN_MOTION_DDOT = 0

CCSDS_OMM_VERS = 2.0
CREATION_DATE  = 
ORIGINATOR     = 

OBJECT_NAME    = QIANFAN-106
OBJECT_ID      = 2025-233R
CENTER_NAME    = EARTH
REF_FRAME      = TEME
TIME_SYSTEM    = UTC
MEAN_ELEMENT_THEORY = SGP/SGP4

EPOCH          = 2025-11-06T18:10:16.116672
MEAN_MOTION    = 14.26313958
ECCENTRICITY   = .0015815
INCLINATION    = 88.9953
RA_OF_ASC_NODE = 66.1722
ARG_OF_PERICENTER = 149.1372
MEAN_ANOMALY   = 211.0755

EPHEMERIS_TYPE = 0
CLASSIFICATION_TYPE = U
NORAD_CAT_ID   = 66048
ELEMENT_SET_NO = 999
REV_AT_EPOCH   = 291
BSTAR          = .35101E-3
MEAN_MOTION_DOT = .858E-5
MEAN_MOTION_DDOT = 0

CCSDS_OMM_VERS = 2.0
CREATION_DATE  = 
ORIGINATOR     = 

OBJECT_NAME    = QIANFAN-107
OBJECT_ID      = 2025-233S
CENTER_NAME    = EARTH
REF_FRAME      = TEME
TIME_SYSTEM    = UTC
MEAN_ELEMENT_THEORY = SGP/SGP4

EPOCH          = 2025-11-06T18:09:55.916352
MEAN_MOTION    = 14.26342856
ECCENTRICITY   = .0016611
INCLINATION    = 88.9952
RA_OF_ASC_NODE = 66.1720
ARG_OF_PERICENTER = 147.2801
MEAN_ANOMALY   = 212.9425

EPHEMERIS_TYPE = 0
CLASSIFICATION_TYPE = U
NORAD_CAT_ID   = 66049
ELEMENT_SET_NO = 999
REV_AT_EPOCH   = 291
BSTAR          = .35115E-3
MEAN_MOTION_DOT = .859E-5
MEAN_MOTION_DDOT = 0

CCSDS_OMM_VERS = 2.0
CREATION_DATE  = 
ORIGINATOR     = 

OBJECT_NAME    = QIANFAN-108
OBJECT_ID      = 2025-233T
CENTER_NAME    = EARTH
REF_FRAME      = TEME
TIME_SYSTEM    = UTC
MEAN_ELEMENT_THEORY = SGP/SGP4

EPOCH          = 2025-11-06T18:09:32.265216
MEAN_MOTION    = 14.26355908
ECCENTRICITY   = .0016578
INCLINATION    = 88.9952
RA_OF_ASC_NODE = 66.1720
ARG_OF_PERICENTER = 148.9650
MEAN_ANOMALY   = 211.2527

EPHEMERIS_TYPE = 0
CLASSIFICATION_TYPE = U
NORAD_CAT_ID   = 66050
ELEMENT_SET_NO = 999
REV_AT_EPOCH   = 291
BSTAR          = .35182E-3
MEAN_MOTION_DOT = .86E-5
MEAN_MOTION_DDOT = 0

CCSDS_OMM_VERS = 2.0
CREATION_DATE  = 
ORIGINATOR     = 

OBJECT_NAME    = CZ-6A R/B
OBJECT_ID      = 2025-233U
CENTER_NAME    = EARTH
REF_FRAME      = TEME
TIME_SYSTEM    = UTC
MEAN_ELEMENT_THEORY = SGP/SGP4

EPOCH          = 2025-11-06T17:48:24.732288
MEAN_MOTION    = 14.57015142
ECCENTRICITY   = .0085623
INCLINATION    = 89.0291
RA_OF_ASC_NODE = 66.1002
ARG_OF_PERICENTER = 50.0487
MEAN_ANOMALY   = 310.8204

EPHEMERIS_TYPE = 0
CLASSIFICATION_TYPE = U
NORAD_CAT_ID   = 66051
ELEMENT_SET_NO = 999
REV_AT_EPOCH   = 297
BSTAR          = .99315E-4
MEAN_MOTION_DOT = .488E-5
MEAN_MOTION_DDOT = 0

CCSDS_OMM_VERS = 2.0
CREATION_DATE  = 
ORIGINATOR     = 

OBJECT_NAME    = 2025-234A
OBJECT_ID      = 2025-234A
CENTER_NAME    = EARTH
REF_FRAME      = TEME
TIME_SYSTEM    = UTC
MEAN_ELEMENT_THEORY = SGP/SGP4

EPOCH          = 2025-11-06T17:34:48.368928
MEAN_MOTION    = 15.22533894
ECCENTRICITY   = .0014549
INCLINATION    = 97.4613
RA_OF_ASC_NODE = 16.2572
ARG_OF_PERICENTER = 220.4418
MEAN_ANOMALY   = 139.5738

EPHEMERIS_TYPE = 0
CLASSIFICATION_TYPE = U
NORAD_CAT_ID   = 66053
ELEMENT_SET_NO = 999
REV_AT_EPOCH   = 283
BSTAR          = .17021E-2
MEAN_MOTION_DOT = .39697E-3
MEAN_MOTION_DDOT = 0

CCSDS_OMM_VERS = 2.0
CREATION_DATE  = 
ORIGINATOR     = 

OBJECT_NAME    = 2025-234B
OBJECT_ID      = 2025-234B
CENTER_NAME    = EARTH
REF_FRAME      = TEME
TIME_SYSTEM    = UTC
MEAN_ELEMENT_THEORY = SGP/SGP4

EPOCH          = 2025-11-06T17:48:39.155904
MEAN_MOTION    = 15.21218909
ECCENTRICITY   = .0014218
INCLINATION    = 97.5039
RA_OF_ASC_NODE = 16.3427
ARG_OF_PERICENTER = 211.9760
MEAN_ANOMALY   = 148.0614

EPHEMERIS_TYPE = 0
CLASSIFICATION_TYPE = U
NORAD_CAT_ID   = 66054
ELEMENT_SET_NO = 999
REV_AT_EPOCH   = 283
BSTAR          = .48995E-3
MEAN_MOTION_DOT = .109E-3
MEAN_MOTION_DDOT = 0

CCSDS_OMM_VERS = 2.0
CREATION_DATE  = 
ORIGINATOR     = 

OBJECT_NAME    = 2025-234C
OBJECT_ID      = 2025-234C
CENTER_NAME    = EARTH
REF_FRAME      = TEME
TIME_SYSTEM    = UTC
MEAN_ELEMENT_THEORY = SGP/SGP4

EPOCH          = 2025-11-06T17:46:32.864160
MEAN_MOTION    = 15.21375335
ECCENTRICITY   = .0014853
INCLINATION    = 97.4563
RA_OF_ASC_NODE = 16.2350
ARG_OF_PERICENTER = 214.0763
MEAN_ANOMALY   = 145.9520

EPHEMERIS_TYPE = 0
CLASSIFICATION_TYPE = U
NORAD_CAT_ID   = 66055
ELEMENT_SET_NO = 999
REV_AT_EPOCH   = 283
BSTAR          = .39601E-3
MEAN_MOTION_DOT = .8837E-4
MEAN_MOTION_DDOT = 0

CCSDS_OMM_VERS = 2.0
CREATION_DATE  = 
ORIGINATOR     = 

OBJECT_NAME    = 2025-234D
OBJECT_ID      = 2025-234D
CENTER_NAME    = EARTH
REF_FRAME      = TEME
TIME_SYSTEM    = UTC
MEAN_ELEMENT_THEORY = SGP/SGP4

EPOCH          = 2025-11-06T17:43:30.404640
MEAN_MOTION    = 15.21838905
ECCENTRICITY   = .0014846
INCLINATION    = 97.4541
RA_OF_ASC_NODE = 16.2327
ARG_OF_PERICENTER = 213.5907
MEAN_ANOMALY   = 146.4389

EPHEMERIS_TYPE = 0
CLASSIFICATION_TYPE = U
NORAD_CAT_ID   = 66056
ELEMENT_SET_NO = 999
REV_AT_EPOCH   = 282
BSTAR          = .12281E-2
MEAN_MOTION_DOT = .28003E-3
MEAN_MOTION_DDOT = 0

CCSDS_OMM_VERS = 2.0
CREATION_DATE  = 
ORIGINATOR     = 

OBJECT_NAME    = 2025-234E
OBJECT_ID      = 2025-234E
CENTER_NAME    = EARTH
REF_FRAME      = TEME
TIME_SYSTEM    = UTC
MEAN_ELEMENT_THEORY = SGP/SGP4

EPOCH          = 2025-11-06T17:55:58.294272
MEAN_MOTION    = 15.32880098
ECCENTRICITY   = .0014133
INCLINATION    = 97.4841
RA_OF_ASC_NODE = 16.4565
ARG_OF_PERICENTER = 230.2545
MEAN_ANOMALY   = 129.7452

EPHEMERIS_TYPE = 0
CLASSIFICATION_TYPE = U
NORAD_CAT_ID   = 66057
ELEMENT_SET_NO = 999
REV_AT_EPOCH   = 284
BSTAR          = .14213E-1
MEAN_MOTION_DOT = .481456E-2
MEAN_MOTION_DDOT = 0

CCSDS_OMM_VERS = 2.0
CREATION_DATE  = 
ORIGINATOR     = 

OBJECT_NAME    = STARLINK-35552
OBJECT_ID      = 2025-235A
CENTER_NAME    = EARTH
REF_FRAME      = TEME
TIME_SYSTEM    = UTC
MEAN_ELEMENT_THEORY = SGP/SGP4

EPOCH          = 2025-11-06T18:00:00.998784
MEAN_MOTION    = 15.71677007
ECCENTRICITY   = .0001532
INCLINATION    = 53.1561
RA_OF_ASC_NODE = 99.2171
ARG_OF_PERICENTER = 30.1804
MEAN_ANOMALY   = 123.1070

EPHEMERIS_TYPE = 0
CLASSIFICATION_TYPE = U
NORAD_CAT_ID   = 66058
ELEMENT_SET_NO = 999
REV_AT_EPOCH   = 409
BSTAR          = .13042E-2
MEAN_MOTION_DOT = .174593E-2
MEAN_MOTION_DDOT = 0

CCSDS_OMM_VERS = 2.0
CREATION_DATE  = 
ORIGINATOR     = 

OBJECT_NAME    = STARLINK-35560
OBJECT_ID      = 2025-235B
CENTER_NAME    = EARTH
REF_FRAME      = TEME
TIME_SYSTEM    = UTC
MEAN_ELEMENT_THEORY = SGP/SGP4

EPOCH          = 2025-11-06T18:00:00.998784
MEAN_MOTION    = 15.60720751
ECCENTRICITY   = .0001282
INCLINATION    = 53.1598
RA_OF_ASC_NODE = 99.3101
ARG_OF_PERICENTER = 58.3392
MEAN_ANOMALY   = 49.7396

EPHEMERIS_TYPE = 0
CLASSIFICATION_TYPE = U
NORAD_CAT_ID   = 66059
ELEMENT_SET_NO = 999
REV_AT_EPOCH   = 409
BSTAR          = -.26127E-1
MEAN_MOTION_DOT = -.1948951E-1
MEAN_MOTION_DDOT = 0

CCSDS_OMM_VERS = 2.0
CREATION_DATE  = 
ORIGINATOR     = 

OBJECT_NAME    = STARLINK-35558
OBJECT_ID      = 2025-235C
CENTER_NAME    = EARTH
REF_FRAME      = TEME
TIME_SYSTEM    = UTC
MEAN_ELEMENT_THEORY = SGP/SGP4

EPOCH          = 2025-11-06T18:00:00.998784
MEAN_MOTION    = 15.60723739
ECCENTRICITY   = .0001194
INCLINATION    = 53.1598
RA_OF_ASC_NODE = 99.3048
ARG_OF_PERICENTER = 59.9849
MEAN_ANOMALY   = 50.0084

EPHEMERIS_TYPE = 0
CLASSIFICATION_TYPE = U
NORAD_CAT_ID   = 66060
ELEMENT_SET_NO = 999
REV_AT_EPOCH   = 409
BSTAR          = -.26172E-1
MEAN_MOTION_DOT = -.1952026E-1
MEAN_MOTION_DDOT = 0

